STARLINK-1559           
1 46077U 20055BC  26068.23360559  .00042685  00000+0  14779-2 0  9995
2 46077  53.0254  76.0659 0004229  33.9710 326.1559 15.29461733309518
STARLINK-31422          
1 59354U 24060G   26068.52856907  .00000220  00000+0  17517-4 0  9990
2 59354  43.0044 261.1618 0001656 266.9669  93.0993 15.27570701110033
